[{"OBJECT_NAME":"TIANMU-1 11","OBJECT_ID":"2023-205A","EPOCH":"2026-03-10T00:04:04.804896","MEAN_MOTION":15.25886825,"ECCENTRICITY":0.00089558,"INCLINATION":97.3549,"RA_OF_ASC_NODE":92.1484,"ARG_OF_PERICENTER":7.2987,"MEAN_ANOMALY":352.838,"EPHEMERIS_TYPE":0,"CLASSIFICATION_TYPE":"U","NORAD_CAT_ID":58645,"ELEMENT_SET_NO":999,"REV_AT_EPOCH":12239,"BSTAR":0.00031315232,"MEAN_MOTION_DOT":7.963e-5,"MEAN_MOTION_DDOT":0},{"OBJECT_NAME":"STARLINK-36058","OBJECT_ID":"2025-270D","EPOCH":"2026-03-09T00:36:56.109888","MEAN_MOTION":15.27622806,"ECCENTRICITY":0.0002099,"INCLINATION":43.0067,"RA_OF_ASC_NODE":59.9879,"ARG_OF_PERICENTER":168.5594,"MEAN_ANOMALY":191.5306,"EPHEMERIS_TYPE":0,"CLASSIFICATION_TYPE":"U","NORAD_CAT_ID":66591,"ELEMENT_SET_NO":999,"REV_AT_EPOCH":1760,"BSTAR":0.0012509606,"MEAN_MOTION_DOT":0.00034368,"MEAN_MOTION_DDOT":0}]
